NORAD_CAT_ID,OBJECT_NAME,OBJECT_TYPE,EPOCH,MEAN_MOTION,ECCENTRICITY,INCLINATION,RA_OF_ASC_NODE,ARG_OF_PERICENTER,MEAN_ANOMALY,BSTAR,MEAN_MOTION_DOT,MEAN_MOTION_DDOT,TLE_LINE0,TLE_LINE1,TLE_LINE2,SEMIMAJOR_AXIS,PERIOD,APOGEE,PERIGEE,DECAYED
56494.0,STARLINK-5530,PAYLOAD,2024-01-30 00:25:08,14.98325968,0.0002832,69.9998,245.0413,266.1534,93.9301,4.6254e-06,-3.8e-07,0.0,0 STARLINK-5530,1 56494U 23064AY  24030.01745399 -.00000038  00000-0  46254-5 0  9998,2 56494  69.9998 245.0413 0002832 266.1534  93.9301 14.98325968 41309,6950.205,96.107,574.039,570.102,0.0
56494.0,STARLINK-5530,PAYLOAD,2024-01-30 14:50:20,14.98333209,0.0002803,70.0,243.5275,266.6111,93.4727,1.8131e-05,1.23e-06,0.0,0 STARLINK-5530,1 56494U 23064AY  24030.61828938  .00000123  00000-0  18131-4 0  9991,2 56494  70.0000 243.5275 0002803 266.6111  93.4727 14.98333209 41033,6950.183,96.107,573.996,570.1,0.0
56494.0,STARLINK-5530,PAYLOAD,2024-01-30 19:38:44,14.98333395,0.0002834,70.0001,243.022,266.0174,94.0661,2.0014e-05,1.46e-06,0.0,0 STARLINK-5530,1 56494U 23064AY  24030.81856863  .00000146  00000-0  20014-4 0  9999,2 56494  70.0001 243.0220 0002834 266.0174  94.0661 14.98333395 41429,6950.182,96.107,574.017,570.078,0.0
56494.0,STARLINK-5530,PAYLOAD,2024-01-30 22:51:00,14.98334068,0.0002796,70.0001,242.6851,266.2142,93.8698,3.0458e-05,2.7e-06,0.0,0 STARLINK-5530,1 56494U 23064AY  24030.95208760  .00000270  00000-0  30458-4 0  9992,2 56494  70.0001 242.6851 0002796 266.2142  93.8698 14.98334068 41085,6950.18,96.107,573.989,570.102,0.0
56494.0,STARLINK-5530,PAYLOAD,2024-01-31 00:27:08,14.98334371,0.0002797,70.0001,242.5169,266.2189,93.865,3.2903e-05,3e-06,0.0,0 STARLINK-5530,1 56494U 23064AY  24031.01884716  .00000300  00000-0  32903-4 0  9992,2 56494  70.0001 242.5169 0002797 266.2189  93.8650 14.98334371 41094,6950.179,96.107,573.988,570.1,0.0
56494.0,STARLINK-5530,PAYLOAD,2024-02-01 13:18:14,14.98330503,0.0002517,70.0007,238.6456,261.5447,98.5427,-2.3568e-05,-3.74e-06,0.0,0 STARLINK-5530,1 56494U 23064AY  24032.55433013 -.00000374  00000-0 -23568-4 0  9992,2 56494  70.0007 238.6456 0002517 261.5447  98.5427 14.98330503 41323,6950.191,96.107,573.806,570.307,0.0
56494.0,STARLINK-5530,PAYLOAD,2024-02-02 00:31:10,14.9832703,0.0002805,70.0,237.4673,265.3609,94.7229,-8.0774e-05,-1.057e-05,0.0,0 STARLINK-5530,1 56494U 23064AY  24033.02165392 -.00001057  00000-0 -80774-4 0  9998,2 56494  70.0000 237.4673 0002805 265.3609  94.7229 14.98327030 41752,6950.202,96.107,574.017,570.118,0.0
56494.0,STARLINK-5530,PAYLOAD,2024-02-02 14:56:23,14.98327908,0.0002894,69.9995,235.9524,267.1824,92.9003,-1.3007e-05,-2.48e-06,0.0,0 STARLINK-5530,1 56494U 23064AY  24033.62249261 -.00000248  00000-0 -13007-4 0  9998,2 56494  69.9995 235.9524 0002894 267.1824  92.9003 14.98327908 41481,6950.199,96.107,574.076,570.053,0.0
56494.0,STARLINK-5530,PAYLOAD,2024-02-02 21:20:55,14.98326223,0.0002965,69.9997,235.2779,271.2753,88.8067,3.6498e-05,3.42e-06,0.0,0 STARLINK-5530,1 56494U 23064AY  24033.88953163  .00000342  00000-0  36498-4 0  9991,2 56494  69.9997 235.2779 0002965 271.2753  88.8067 14.98326223 41522,6950.205,96.107,574.13,570.009,0.0
56494.0,STARLINK-5530,PAYLOAD,2024-02-03 13:22:16,14.98329026,0.0002981,69.9999,233.596,273.0315,87.0503,3.5174e-05,3.27e-06,0.0,0 STARLINK-5530,1 56494U 23064AY  24034.55713124  .00000327  00000-0  35174-4 0  9990,2 56494  69.9999 233.5960 0002981 273.0315  87.0503 14.98329026 41620,6950.196,96.107,574.133,569.989,0.0
56494.0,STARLINK-5530,PAYLOAD,2024-02-03 19:46:48,14.98329435,0.0002946,69.9999,232.9223,269.8361,90.246,5.9007e-05,6.11e-06,0.0,0 STARLINK-5530,1 56494U 23064AY  24034.82417013  .00000611  00000-0  59007-4 0  9995,2 56494  69.9999 232.9223 0002946 269.8361  90.2460 14.98329435 42027,6950.195,96.107,574.107,570.012,0.0
56494.0,STARLINK-5530,PAYLOAD,2024-02-03 21:22:56,14.98330002,0.0002906,70.0,232.7541,269.7432,90.3394,6.7325e-05,7.1e-06,0.0,0 STARLINK-5530,1 56494U 23064AY  24034.89092955  .00000710  00000-0  67325-4 0  9998,2 56494  70.0000 232.7541 0002906 269.7432  90.3394 14.98330002 41677,6950.193,96.107,574.078,570.038,0.0
56494.0,STARLINK-5530,PAYLOAD,2024-02-04 15:00:24,14.98332414,0.0002894,70.0001,230.9026,269.7554,90.3273,3.5135e-05,3.26e-06,0.0,0 STARLINK-5530,1 56494U 23064AY  24035.62528831  .00000326  00000-0  35135-4 0  9994,2 56494  70.0001 230.9026 0002894 269.7554  90.3273 14.98332414 41784,6950.185,96.107,574.062,570.039,0.0
56494.0,STARLINK-5530,PAYLOAD,2024-02-04 19:48:49,14.98333039,0.0002885,70.0002,230.3978,269.7014,90.3815,4.0646e-05,3.92e-06,0.0,0 STARLINK-5530,1 56494U 23064AY  24035.82556737  .00000392  00000-0  40646-4 0  9998,2 56494  70.0002 230.3978 0002885 269.7014  90.3815 14.98333039 42176,6950.183,96.107,574.054,570.043,0.0
56494.0,STARLINK-5530,PAYLOAD,2024-02-04 21:24:57,14.98332883,0.000289,70.0002,230.2294,269.8357,90.2471,3.7704e-05,3.57e-06,0.0,0 STARLINK-5530,1 56494U 23064AY  24035.89232740  .00000357  00000-0  37704-4 0  9992,2 56494  70.0002 230.2294 0002890 269.8357  90.2471 14.98332883 41827,6950.184,96.107,574.058,570.04,0.0
56494.0,STARLINK-5530,PAYLOAD,2024-02-05 13:26:17,14.98333581,0.0002838,70.0004,228.5467,269.325,90.7584,3.5556e-06,-5.1e-07,0.0,0 STARLINK-5530,1 56494U 23064AY  24036.55992643 -.00000051  00000-0  35556-5 0  9997,2 56494  70.0004 228.5467 0002838 269.3250  90.7584 14.98333581 41927,6950.182,96.107,574.019,570.074,0.0
56494.0,STARLINK-5530,PAYLOAD,2024-02-05 19:50:49,14.98333375,0.0002844,70.0005,227.8736,269.3523,90.731,1.2966e-06,-7.8e-07,0.0,0 STARLINK-5530,1 56494U 23064AY  24036.82696591 -.00000078  00000-0  12966-5 0  9999,2 56494  70.0005 227.8736 0002844 269.3523  90.7310 14.98333375 42322,6950.182,96.107,574.024,570.071,0.0
56494.0,STARLINK-5530,PAYLOAD,2024-02-05 21:26:57,14.9833349,0.0002843,70.0005,227.7052,269.4014,90.6819,2.4755e-06,-6.3e-07,0.0,0 STARLINK-5530,1 56494U 23064AY  24036.89372563 -.00000063  00000-0  24755-5 0  9999,2 56494  70.0005 227.7052 0002843 269.4014  90.6819 14.98333490 41978,6950.182,96.107,574.023,570.071,0.0
56494.0,STARLINK-5530,PAYLOAD,2024-02-06 13:28:18,14.98333724,0.0002835,70.0006,226.0223,270.5228,89.5606,-8.6558e-06,-1.96e-06,0.0,0 STARLINK-5530,1 56494U 23064AY  24037.56132400 -.00000196  00000-0 -86558-5 0  9995,2 56494  70.0006 226.0223 0002835 270.5228  89.5606 14.98333724 42075,6950.181,96.107,574.017,570.076,0.0
56494.0,STARLINK-5530,PAYLOAD,2024-02-06 19:52:50,14.98334164,0.0002815,70.0007,225.3493,269.8517,90.232,-1.5632e-06,-1.12e-06,0.0,0 STARLINK-5530,1 56494U 23064AY  24037.82836275 -.00000112  00000-0 -15632-5 0  9998,2 56494  70.0007 225.3493 0002815 269.8517  90.2320 14.98334164 42472,6950.18,96.107,574.001,570.089,0.0
56494.0,STARLINK-5530,PAYLOAD,2024-02-06 21:28:58,14.98334053,0.000282,70.0007,225.181,270.0146,90.069,-3.052e-06,-1.29e-06,0.0,0 STARLINK-5530,1 56494U 23064AY  24037.89512269 -.00000129  00000-0 -30520-5 0  9990,2 56494  70.0007 225.1810 0002820 270.0146  90.0690 14.98334053 42128,6950.18,96.107,574.005,570.085,0.0
56494.0,STARLINK-5530,PAYLOAD,2024-02-07 15:06:27,14.98327769,0.0002686,70.0011,223.3299,266.5474,93.5378,-3.9663e-05,-5.66e-06,0.0,0 STARLINK-5530,1 56494U 23064AY  24038.62948688 -.00000566  00000-0 -39663-4 0  9991,2 56494  70.0011 223.3299 0002686 266.5474  93.5378 14.98327769 42237,6950.2,96.107,573.932,570.198,0.0
56494.0,STARLINK-5530,PAYLOAD,2024-02-07 19:54:51,14.9832661,0.0002772,70.001,222.8248,269.4759,90.6083,-5.601e-05,-7.61e-06,0.0,0 STARLINK-5530,1 56494U 23064AY  24038.82976843 -.00000761  00000-0 -56010-4 0  9999,2 56494  70.0010 222.8248 0002772 269.4759  90.6083 14.98326610 42626,6950.203,96.107,573.995,570.142,0.0
56494.0,STARLINK-5530,PAYLOAD,2024-02-07 21:31:00,14.98326438,0.000278,70.0009,222.6564,269.5437,90.5404,-5.7527e-05,-7.79e-06,0.0,0 STARLINK-5530,1 56494U 23064AY  24038.89652867 -.00000779  00000-0 -57527-4 0  9996,2 56494  70.0009 222.6564 0002780 269.5437  90.5404 14.98326438 42271,6950.204,96.107,574.001,570.137,0.0
56494.0,STARLINK-5530,PAYLOAD,2024-02-08 13:32:20,14.9833224,0.0002968,70.0005,220.9728,270.6646,89.4173,-9.7245e-06,-2.09e-06,0.0,0 STARLINK-5530,1 56494U 23064AY  24039.56412350 -.00000209  00000-0 -97245-5 0  9992,2 56494  70.0005 220.9728 0002968 270.6646  89.4173 14.98332240 42372,6950.186,96.107,574.114,569.988,0.0
56494.0,STARLINK-5530,PAYLOAD,2024-02-08 19:56:52,14.98332995,0.0002961,70.0006,220.2997,270.8577,89.2243,2.1793e-06,-6.7e-07,0.0,0 STARLINK-5530,1 56494U 23064AY  24039.83116230 -.00000067  00000-0  21793-5 0  9996,2 56494  70.0006 220.2997 0002961 270.8577  89.2243 14.98332995 42779,6950.184,96.107,574.107,569.991,0.0
56494.0,STARLINK-5530,PAYLOAD,2024-02-08 21:33:00,14.98333072,0.000296,70.0006,220.1314,270.9438,89.1382,3.4507e-06,-5.2e-07,0.0,0 STARLINK-5530,1 56494U 23064AY  24039.89792211 -.00000052  00000-0  34507-5 0  9992,2 56494  70.0006 220.1314 0002960 270.9438  89.1382 14.98333072 42429,6950.183,96.107,574.106,569.991,0.0
56494.0,STARLINK-5530,PAYLOAD,2024-02-09 13:34:21,14.9832969,0.0002999,70.0006,218.448,270.6594,89.4221,4.8515e-05,4.86e-06,0.0,0 STARLINK-5530,1 56494U 23064AY  24040.56552221  .00000486  00000-0  48515-4 0  9996,2 56494  70.0006 218.4480 0002999 270.6594  89.4221 14.98329690 42522,6950.194,96.107,574.143,569.974,0.0
56494.0,STARLINK-5530,PAYLOAD,2024-02-09 19:58:53,14.9833091,0.0002997,70.0007,217.7749,270.7733,89.3082,5.77e-05,5.96e-06,0.0,0 STARLINK-5530,1 56494U 23064AY  24040.83256107  .00000596  00000-0  57700-4 0  9998,2 56494  70.0007 217.7749 0002997 270.7733  89.3082 14.98330910 42922,6950.19,96.107,574.138,569.972,0.0
56494.0,STARLINK-5530,PAYLOAD,2024-02-10 13:36:22,14.98329244,0.0002932,70.0009,215.9236,271.4734,88.6089,-3.4485e-05,-5.04e-06,0.0,0 STARLINK-5530,1 56494U 23064AY  24041.56692454 -.00000504  00000-0 -34485-4 0  9994,2 56494  70.0009 215.9236 0002932 271.4734  88.6089 14.98329244 42672,6950.195,96.107,574.098,570.022,0.0
